NORAD_CAT_ID,OBJECT_NAME,OBJECT_TYPE,EPOCH,MEAN_MOTION,ECCENTRICITY,INCLINATION,RA_OF_ASC_NODE,ARG_OF_PERICENTER,MEAN_ANOMALY,BSTAR,MEAN_MOTION_DOT,MEAN_MOTION_DDOT,TLE_LINE0,TLE_LINE1,TLE_LINE2,SEMIMAJOR_AXIS,PERIOD,APOGEE,PERIGEE,DECAYED
56779.0,STARLINK-6231,PAYLOAD,2023-09-22 13:08:18,15.6992413,0.0003814,69.9968,92.0131,276.5792,83.4969,1.7744e-05,1.921e-05,0.0,0 STARLINK-6231,1 56779U 23078N   23265.54743322  .00001921  00000-0  17744-4 0  9992,2 56779  69.9968  92.0131 0003814 276.5792  83.4969 15.69924130 17987,6737.251,91.724,361.686,356.546,0.0
56779.0,STARLINK-6231,PAYLOAD,2023-09-22 16:11:49,15.69905572,0.0003646,69.9972,91.6553,279.5421,80.5363,-3.3711e-06,-6.18e-06,0.0,0 STARLINK-6231,1 56779U 23078N   23265.67488287 -.00000618  00000-0 -33711-5 0  9999,2 56779  69.9972  91.6553 0003646 279.5421  80.5363 15.69905572 18267,6737.304,91.725,361.626,356.713,0.0
56779.0,STARLINK-6231,PAYLOAD,2023-09-22 20:47:04,15.69916411,0.0003383,69.9973,91.1176,275.5942,84.4867,8.5116e-06,8.1e-06,0.0,0 STARLINK-6231,1 56779U 23078N   23265.86602563  .00000810  00000-0  85116-5 0  9993,2 56779  69.9973  91.1176 0003383 275.5942  84.4867 15.69916411 18037,6737.273,91.725,361.417,356.859,0.0
56779.0,STARLINK-6231,PAYLOAD,2023-09-22 22:18:49,15.69914391,0.000305,69.9986,90.9393,271.0267,89.058,1.5753e-05,1.681e-05,0.0,0 STARLINK-6231,1 56779U 23078N   23265.92974287  .00001681  00000-0  15753-4 0  9991,2 56779  69.9986  90.9393 0003050 271.0267  89.0580 15.69914391 18309,6737.279,91.725,361.199,357.089,0.0
56779.0,STARLINK-6231,PAYLOAD,2023-09-23 12:04:35,15.69928635,0.0003335,69.998,89.3254,273.4469,86.6345,-1.4879e-07,-2.31e-06,0.0,0 STARLINK-6231,1 56779U 23078N   23266.50318688 -.00000231  00000-0 -14879-6 0  9995,2 56779  69.9980  89.3254 0003335 273.4469  86.6345 15.69928635 18394,6737.238,91.724,361.35,356.856,0.0
56779.0,STARLINK-6231,PAYLOAD,2023-09-23 13:36:20,15.69925938,0.0003356,69.9981,89.1468,273.0488,87.0324,-7.9448e-08,-2.22e-06,0.0,0 STARLINK-6231,1 56779U 23078N   23266.56690535 -.00000222  00000-0 -79448-7 0  9999,2 56779  69.9981  89.1468 0003356 273.0488  87.0324 15.69925938 18148,6737.246,91.724,361.372,356.85,0.0
56779.0,STARLINK-6231,PAYLOAD,2023-09-24 14:04:22,15.69915334,0.0003064,69.9986,86.2816,265.4529,94.6317,2.1564e-05,2.38e-05,0.0,0 STARLINK-6231,1 56779U 23078N   23267.58637210  .00002380  00000-0  21564-4 0  9991,2 56779  69.9986  86.2816 0003064 265.4529  94.6317 15.69915334 18308,6737.276,91.725,361.206,357.077,0.0
56779.0,STARLINK-6231,PAYLOAD,2023-09-24 15:36:07,15.69915252,0.0003123,69.9986,86.1034,257.1631,102.9216,2.0661e-05,2.271e-05,0.0,0 STARLINK-6231,1 56779U 23078N   23267.65008871  .00002271  00000-0  20661-4 0  9990,2 56779  69.9986  86.1034 0003123 257.1631 102.9216 15.69915252 18576,6737.276,91.725,361.246,357.037,0.0
56779.0,STARLINK-6231,PAYLOAD,2023-09-24 21:43:08,15.69919216,0.0003253,69.9983,85.3858,265.7632,94.3192,2.2971e-05,2.55e-05,0.0,0 STARLINK-6231,1 56779U 23078N   23267.90495395  .00002550  00000-0  22971-4 0  9995,2 56779  69.9983  85.3858 0003253 265.7632  94.3192 15.69919216 18355,6737.265,91.724,361.322,356.938,0.0
56779.0,STARLINK-6231,PAYLOAD,2023-09-25 05:21:53,15.69934442,0.0003617,69.998,84.4887,277.1538,82.9246,1.2294e-05,1.266e-05,0.0,0 STARLINK-6231,1 56779U 23078N   23268.22353029  .00001266  00000-0  12294-4 0  9998,2 56779  69.9980  84.4887 0003617 277.1538  82.9246 15.69934442 18665,6737.222,91.724,361.523,356.65,0.0
56779.0,STARLINK-6231,PAYLOAD,2023-09-25 13:00:39,15.69923485,0.000358,69.9978,83.5933,276.5488,83.53,1.4597e-05,1.543e-05,0.0,0 STARLINK-6231,1 56779U 23078N   23268.54211900  .00001543  00000-0  14597-4 0  9990,2 56779  69.9978  83.5933 0003580 276.5488  83.5300 15.69923485 18450,6737.253,91.724,361.53,356.706,0.0
56779.0,STARLINK-6231,PAYLOAD,2023-09-25 19:07:40,15.69909313,0.0002812,69.9989,82.8783,261.1014,98.9863,-1.4038e-05,-1.899e-05,0.0,0 STARLINK-6231,1 56779U 23078N   23268.79700208 -.00001899  00000-0 -14038-4 0  9997,2 56779  69.9989  82.8783 0002812 261.1014  98.9863 15.69909313 18750,6737.293,91.725,361.053,357.264,0.0
56779.0,STARLINK-6231,PAYLOAD,2023-09-25 20:39:26,15.69908786,0.0002771,69.9989,82.6994,260.4103,99.678,-1.4529e-05,-1.958e-05,0.0,0 STARLINK-6231,1 56779U 23078N   23268.86071969 -.00001958  00000-0 -14529-4 0  9991,2 56779  69.9989  82.6994 0002771 260.4103  99.6780 15.69908786 18509,6737.295,91.725,361.027,357.293,0.0
56779.0,STARLINK-6231,PAYLOAD,2023-09-26 15:00:26,15.69923504,0.0003258,69.9976,80.5471,268.1764,91.9058,3.9754e-06,2.65e-06,0.0,0 STARLINK-6231,1 56779U 23078N   23269.62530909  .00000265  00000-0  39754-5 0  9996,2 56779  69.9976  80.5471 0003258 268.1764  91.9058 15.69923504 18622,6737.253,91.724,361.313,356.923,0.0
56779.0,STARLINK-6231,PAYLOAD,2023-09-26 21:07:26,15.69937109,0.0003128,69.998,79.8317,269.5361,90.5476,2.1652e-05,2.393e-05,0.0,0 STARLINK-6231,1 56779U 23078N   23269.88016377  .00002393  00000-0  21652-4 0  9993,2 56779  69.9980  79.8317 0003128 269.5361  90.5476 15.69937109 18660,6737.214,91.723,361.186,356.972,0.0
56779.0,STARLINK-6231,PAYLOAD,2023-09-27 04:46:13,15.69917986,0.0003314,69.9974,78.935,272.3646,87.717,-7.4428e-06,-1.107e-05,0.0,0 STARLINK-6231,1 56779U 23078N   23270.19876425 -.00001107  00000-0 -74428-5 0  9991,2 56779  69.9974  78.9350 0003314 272.3646  87.7170 15.69917986 18979,6737.269,91.725,361.366,356.901,0.0
56779.0,STARLINK-6231,PAYLOAD,2023-09-27 12:24:58,15.69915617,0.0004312,69.998,78.0404,269.4582,90.612,1.267e-05,1.31e-05,0.0,0 STARLINK-6231,1 56779U 23078N   23270.51734302  .00001310  00000-0  12670-4 0  9998,2 56779  69.9980  78.0404 0004312 269.4582  90.6120 15.69915617 18766,6737.275,91.725,362.046,356.235,0.0
56779.0,STARLINK-6231,PAYLOAD,2023-09-27 13:56:42,15.69933273,0.0003256,69.9993,77.8604,272.1129,87.9694,2.8369e-05,3.201e-05,0.0,0 STARLINK-6231,1 56779U 23078N   23270.58104766  .00003201  00000-0  28369-4 0  9993,2 56779  69.9993  77.8604 0003256 272.1129  87.9694 15.69933273 19037,6737.225,91.724,361.284,356.896,0.0
56779.0,STARLINK-6231,PAYLOAD,2023-09-27 21:35:30,15.69899177,0.0002951,69.9975,76.9643,271.3156,88.7702,-5.4644e-05,-6.77e-05,0.0,0 STARLINK-6231,1 56779U 23078N   23270.89966383 -.00006770  00000-0 -54644-4 0  9999,2 56779  69.9975  76.9643 0002951 271.3156  88.7702 15.69899177 19080,6737.322,91.726,361.176,357.199,0.0
56779.0,STARLINK-6231,PAYLOAD,2023-09-28 14:24:45,15.69927673,0.0003055,69.9974,74.9939,272.4493,87.6353,-1.2112e-05,-1.669e-05,0.0,0 STARLINK-6231,1 56779U 23078N   23271.60052929 -.00001669  00000-0 -12112-4 0  9997,2 56779  69.9974  74.9939 0003055 272.4493  87.6353 15.69927673 18933,6737.241,91.724,361.164,357.048,0.0
56779.0,STARLINK-6231,PAYLOAD,2023-09-28 20:31:46,15.69924019,0.0003009,69.9984,74.2766,275.4195,84.6657,-9.7518e-06,-1.385e-05,0.0,0 STARLINK-6231,1 56779U 23078N   23271.85539834 -.00001385  00000-0 -97518-5 0  9998,2 56779  69.9984  74.2766 0003009 275.4195  84.6657 15.69924019 18975,6737.251,91.724,361.144,357.089,0.0
56779.0,STARLINK-6231,PAYLOAD,2023-09-29 11:49:16,15.69933025,0.000336,69.9972,72.4885,273.8616,86.2195,1.618e-05,1.734e-05,0.0,0 STARLINK-6231,1 56779U 23078N   23272.49255583  .00001734  00000-0  16180-4 0  9996,2 56779  69.9972  72.4885 0003360 273.8616  86.2195 15.69933025 19078,6737.226,91.724,361.354,356.827,0.0
56779.0,STARLINK-6231,PAYLOAD,2023-09-29 14:52:47,15.69932593,0.0003471,69.997,72.13,271.7233,88.3566,1.2778e-05,1.324e-05,0.0,0 STARLINK-6231,1 56779U 23078N   23272.61998939  .00001324  00000-0  12778-4 0  9993,2 56779  69.9970  72.1300 0003471 271.7233  88.3566 15.69932593 19355,6737.227,91.724,361.43,356.753,0.0
56779.0,STARLINK-6231,PAYLOAD,2023-09-29 19:28:02,15.69945229,0.0003521,69.997,71.593,269.5268,90.5525,-1.4431e-05,-1.949e-05,0.0,0 STARLINK-6231,1 56779U 23078N   23272.81113477 -.00001949  00000-0 -14431-4 0  9994,2 56779  69.9970  71.5930 0003521 269.5268  90.5525 15.69945229 19389,6737.191,91.723,361.428,356.684,0.0
56779.0,STARLINK-6231,PAYLOAD,2023-09-30 10:45:34,15.69913462,0.0003058,69.9993,69.7977,279.353,80.732,9.0229e-06,8.72e-06,0.0,0 STARLINK-6231,1 56779U 23078N   23273.44832035  .00000872  00000-0  90229-5 0  9994,2 56779  69.9993  69.7977 0003058 279.3530  80.7320 15.69913462 19489,6737.282,91.725,361.207,357.086,0.0
56779.0,STARLINK-6231,PAYLOAD,2023-09-30 18:24:19,15.69934631,0.0003156,69.9987,68.9031,275.4061,84.6774,2.905e-05,3.283e-05,0.0,0 STARLINK-6231,1 56779U 23078N   23273.76688715  .00003283  00000-0  29050-4 0  9995,2 56779  69.9987  68.9031 0003156 275.4061  84.6774 15.69934631 19532,6737.221,91.724,361.212,356.96,0.0
56779.0,STARLINK-6231,PAYLOAD,2023-10-01 11:13:36,15.69928631,0.0002986,69.9979,66.9362,270.7026,89.3828,3.4672e-06,2.04e-06,0.0,0 STARLINK-6231,1 56779U 23078N   23274.46777799  .00000204  00000-0  34672-5 0  9991,2 56779  69.9979  66.9362 0002986 270.7026  89.3828 15.69928631 19644,6737.238,91.724,361.115,357.091,0.0
56779.0,STARLINK-6231,PAYLOAD,2023-10-01 12:45:21,15.69916943,0.0003551,69.9968,66.756,264.7058,95.3733,-9.2055e-06,-1.319e-05,0.0,0 STARLINK-6231,1 56779U 23078N   23274.53150257 -.00001319  00000-0 -92055-5 0  9992,2 56779  69.9968  66.7560 0003551 264.7058  95.3733 15.69916943 19394,6737.272,91.725,361.529,356.744,0.0
56779.0,STARLINK-6231,PAYLOAD,2023-10-01 18:52:22,15.69915636,0.000351,69.9959,66.0387,263.76,96.3196,-5.9184e-06,-9.24e-06,0.0,0 STARLINK-6231,1 56779U 23078N   23274.78636994 -.00000924  00000-0 -59184-5 0  9993,2 56779  69.9959  66.0387 0003510 263.7600  96.3196 15.69915636 19696,6737.275,91.725,361.505,356.776,0.0
56779.0,STARLINK-6231,PAYLOAD,2023-10-01 20:24:07,15.69922717,0.0003268,69.9976,65.8601,264.7524,95.3298,-8.5259e-06,-1.238e-05,0.0,0 STARLINK-6231,1 56779U 23078N   23274.85008374 -.00001238  00000-0 -85259-5 0  9997,2 56779  69.9976  65.8601 0003268 264.7524  95.3298 15.69922717 19440,6737.255,91.724,361.322,356.918,0.0
